WT 1B                   
1 44316U 19032G   25220.74232623  .00009437  00000+0  46076-3 0  9991
2 44316  44.9786 315.6720 0016452 273.5474  86.3523 15.18485427339470
PROX-1                  
1 44339U 19036A   25220.74089084  .00010140  00000+0  12451-2 0  9993
2 44339  23.9975  26.3074 0007999  37.1146 322.9904 14.81007376327039
NPSAT1                  
1 44340U 19036B   25220.30089139  .00004508  00000+0  69626-3 0  9996
2 44340  23.9989  88.8444 0008590 285.9718  73.9830 14.70022897326321
FORMOSAT 7-3            
1 44343U 19036E   25220.23538712  .00003738  00000+0  22702-3 0  9995
2 44343  23.9980 166.8656 0001033 146.9080 213.1487 15.06112130335944
FORMOSAT 7-1            
1 44349U 19036L   25220.59048111  .00002888  00000+0  21763-3 0  9990
2 44349  23.9993 341.8489 0000472 276.7692  83.2756 14.97256319337753
FORMOSAT 7-4            
1 44350U 19036M   25220.61144107  .00003719  00000+0  28767-3 0  9992
2 44350  23.9995  43.7786 0000665 267.0572  92.9853 14.97247962337174
FORMOSAT 7-2            
1 44351U 19036N   25220.83448394  .00003023  00000+0  22905-3 0  9998
2 44351  23.9978  96.6016 0000809 265.9678  94.0730 14.97256108336777
FORMOSAT 7-6            
1 44353U 19036Q   25220.56763463  .00002679  00000+0  20012-3 0  9990
2 44353  23.9978 279.2301 0000864 298.0806  61.9607 14.97246914334910
FORMOSAT 7-5            
1 44358U 19036V   25220.32639945  .00002888  00000+0  19265-3 0  9996
2 44358  23.9977 220.3474 0001857  80.7904 279.2808 15.01722610335400
METEOR-M2 2             
1 44387U 19038A   25220.84563882  .00000110  00000+0  67612-4 0  9999
2 44387  98.8792 199.1332 0001334 146.0885 214.0379 14.24222652316839
COSMOS 2535             
1 44421U 19039A   25220.83950757  .00001290  00000+0  13623-3 0  9991
2 44421  97.6158 255.4833 0008991 163.2101 196.9417 14.90883356329989
GLOBAL-4                
1 44499U 19054E   25220.44882095  .00013875  00000+0  34048-3 0  9995
2 44499  45.0093 205.8939 0004974  88.7627 271.3831 15.40677242331797
ZY-1 02D                
1 44528U 19059A   25220.86110152  .00000116  00000+0  55091-4 0  9993
2 44528  98.3643 287.6731 0001533  31.9093 328.2185 14.35426918309531
TAURUS-1 (JINNIUZUO 1)  
1 44530U 19059C   25220.85193017  .00006087  00000+0  11082-2 0  9999
2 44530  98.6128   3.1493 0009210 202.0851 157.9956 14.66445802312774
ZHUHAI-1 03A            
1 44534U 19060A   25220.87985323  .00657275  20872-3  10472-2 0  9992
2 44534  97.5192  13.7493 0007363 271.4776  88.5660 16.03697691328852
ZHUHAI-1 03B            
1 44536U 19060C   25220.86123124  .00017073  00000+0  51105-3 0  9998
2 44536  97.5243   2.3141 0012922  14.5929 345.5685 15.34525387328137
ZHUHAI-1 03C            
1 44537U 19060D   25220.88136829  .00028630  00000+0  61372-3 0  9995
2 44537  97.5505   6.1759 0017281 335.9832  24.0608 15.44553130328404
ZHUHAI-1 03D            
1 44538U 19060E   25220.81011666  .00015164  00000+0  49666-3 0  9990
2 44538  97.5073 356.8336 0011390 355.7736   4.3407 15.31696267327995
ZHUHAI-1 03E            
1 44539U 19060F   25220.81499954  .00012830  00000+0  46495-3 0  9995
2 44539  97.5271 358.7072 0011953  50.2914 309.9377 15.28438786327855
ATLAS 5 CENTAUR DEB     
1 44694U 18079BG  25217.13080779 -.00000156  00000+0  00000+0 0  9995
2 44694  13.2594  64.9170 4742622 248.6754  55.3370  1.77428732 40933
GAOFEN-7                
1 44703U 19072A   25220.85262049  .00004849  00000+0  21818-3 0  9991
2 44703  97.2881 288.2248 0011904  38.0735 322.1341 15.21491147320152
STARLINK-1010           
1 44716U 19074D   25220.58335648  .00147991  00000+0  14202-2 0  9997
2 44716  53.0541  32.8293 0005624 249.7331   1.5944 15.65645600317210
JILIN-1 GAOFEN 2A       
1 44777U 19075A   25220.86234553  .00010897  00000+0  38834-3 0  9991
2 44777  97.5296 294.2390 0009517 114.0306 246.1931 15.29056681316992
NINGXIA-1 1             
1 44779U 19076A   25220.85115541 -.00000037  00000+0  60749-4 0  9995
2 44779  45.0060 135.5494 0010019 118.8424 241.3417 14.01931086294020
NINGXIA-1 5             
1 44783U 19076E   25220.86350424 -.00000030  00000+0  64788-4 0  9992
2 44783  45.0058 134.8350 0010039 105.5489 254.6454 14.01954599294034
KL-ALPHA A              
1 44785U 19077A   25220.54955237  .00000068  00000+0  80424-4 0  9998
2 44785  88.9062 257.0641 0009287 308.1167  51.9149 13.56002009283367
CARTOSAT-3              
1 44804U 19081A   25220.82916532  .00004263  00000+0  20521-3 0  9993
2 44804  97.4773 281.8551 0014297 160.2962 199.8828 15.19216693315993
JILIN-1 GAOFEN 2B       
1 44836U 19086A   25220.83371633  .00005231  00000+0  27768-3 0  9997
2 44836  97.5282 290.1957 0014679 331.0385  29.0032 15.15677164313098
DUCHIFAT-3              
1 44854U 19089C   25220.63870206  .00049203  00000+0  80255-3 0  9995
2 44854  36.9420 331.9897 0004962  78.3812 281.7503 15.51575950312264
ANGELS                  
1 44876U 19092D   25220.52700628  .00024151  00000+0  47661-3 0  9990
2 44876  97.4517  60.5836 0005155 265.5883  94.4778 15.47157276313400
TIANQIN 1 (CAS-6)       
1 44879U 19093A   25220.84873980  .00003503  00000+0  34256-3 0  9995
2 44879  97.8059 302.0890 0012057  20.6754 339.4951 14.92944437305406
ETRSS-1                 
1 44880U 19093B   25220.84797205  .00003551  00000+0  34580-3 0  9995
2 44880  97.8067 302.3605 0012261  21.5211 338.6522 14.93101087305401
TIANYAN 01              
1 44881U 19093C   25220.83985919  .00000929  00000+0  11305-3 0  9992
2 44881  97.7898 295.2247 0014586  38.8202 321.4059 14.85706618305023
TIANYAN 02              
1 44882U 19093D   25220.80327068  .00006506  00000+0  53137-3 0  9991
2 44882  97.8236 308.6115 0012622  13.2146 346.9405 14.99685739305704
CBERS 4A                
1 44883U 19093E   25220.80728562  .00001075  00000+0  14336-3 0  9990
2 44883  97.7901 292.4150 0003565 100.7674 259.3941 14.81582908304825
WEILAI 1R               
1 44884U 19093F   25220.81920232  .00003802  00000+0  33780-3 0  9994
2 44884  97.8087 305.7110 0010270  13.5980 346.5516 14.96696199305639
FLORIPASAT-1            
1 44885U 19093G   25220.76927714  .00004341  00000+0  36281-3 0  9999
2 44885  97.8148 308.5124 0009863   4.9224 355.2094 14.99011007305769
SHUNTIAN                
1 44886U 19093H   25220.84964608  .00003224  00000+0  31692-3 0  9992
2 44886  97.8201 305.8461 0012840  30.3427 329.8533 14.92781190305542
2019-093L               
1 44889U 19093L   25220.81201430  .00003126  00000+0  31393-3 0  9998
2 44889  97.7867 297.8026 0012646  16.3676 343.7948 14.91942118305164
ELEKTRO-L 3             
1 44903U 19095A   25220.55759608 -.00000095  00000+0  00000+0 0  9993
2 44903   0.0150  43.2080 0001115 154.6789  36.1984  1.00272593 20577
GONETS-M 14             
1 44905U 19096A   25220.55783587  .00000054  00000+0  31663-3 0  9996
2 44905  82.5216 278.4382 0015021 114.7461 245.5184 12.42895515254849
GONETS-M 15             
1 44906U 19096B   25220.58293441  .00000068  00000+0  42102-3 0  9990
2 44906  82.5236 278.8274 0016765 135.1938 225.0499 12.42898230254814
GONETS-M 16             
1 44907U 19096C   25220.61194628  .00000061  00000+0  36757-3 0  9994
2 44907  82.5180 277.9056 0011783 172.8304 187.2946 12.42856231254801
RS-44 & BREEZE-KM R/B   
1 44909U 19096E   25220.59712414  .00000011  00000+0 -40282-5 0  9998
2 44909  82.5223 187.4048 0217879 154.9614 206.2247 12.79742402262366
JILIN-1 KUANFU 01       
1 45016U 20003A   25220.80399831  .00003401  00000+0  21427-3 0  9999
2 45016  97.5390 295.4878 0005037   9.9597 350.1731 15.09818348308185
XINGYUN-2 01            
1 45602U 20028A   25220.87047525  .00002468  00000+0  15678-3 0  9997
2 45602  97.4683 215.2874 0009129 187.9646 172.1439 15.09728700287684
XINGYUN-2 02            
1 45603U 20028B   25220.80710698  .00002048  00000+0  13120-3 0  9993
2 45603  97.5098 227.6793 0009663 264.6786  95.3340 15.09610852287678
HAIYANG-1D              
1 45721U 20036A   25220.84196080  .00000158  00000+0  71400-4 0  9996
2 45721  98.4165 164.9450 0003536  15.5134 344.6159 14.34261798270207
M2 PATHFINDER           
1 45727U 20037E   25220.48304484  .00001361  00000+0  10712-3 0  9997
2 45727  97.8147  43.5938 0013399 122.4843 237.7678 15.02467944278508
GAOFEN DUOMO (GFDM)     
1 45856U 20042A   25220.86476379  .00000829  00000+0  12500-3 0  9996
2 45856  97.8209 286.3150 0012357  11.8306 348.3192 14.76837292274919
ZINYUAN-3               
1 45939U 20051A   25220.83323341  .00004989  00000+0  22661-3 0  9995
2 45939  97.3240 292.9004 0003370  59.7591 300.3978 15.21213832279862
TYVAK-0172              
1 46267U 20059C   25220.58709277  .00031962  00000+0  94286-3 0  9999
2 46267  97.7660  83.0548 0000788  82.7016 277.4316 15.34937689270157
ION-MK01                
1 46274U 20061C   25220.74810692  .00026305  00000+0  40746-3 0  9999
2 46274  97.2392 288.9783 0001650  47.6466 312.4927 15.54014511274319
UPMSAT-2                
1 46276U 20061E   25220.30262701  .00092357  00000+0  54870-3 0  9998
2 46276  97.2386 297.0382 0001291 192.5267 167.5967 15.77738385274859
NEMO-HD                 
1 46277U 20061F   25220.84235994  .00008719  00000+0  24340-3 0  9990
2 46277  97.2409 281.7180 0002789  95.1459 265.0104 15.36956726273881
3CAT-5A                 
1 46292U 20061W   25219.98072889  .00009934  00000+0  29391-3 0  9993
2 46292  97.2907 279.8583 0003153 145.6121 214.5327 15.35094966272804
3CAT-5B                 
1 46293U 20061X   25220.67900870  .00010251  00000+0  29793-3 0  9992
2 46293  97.2911 281.0711 0003453 145.5230 214.6238 15.35647386272915
OSM-1 CICERO            
1 46294U 20061Y   25220.78537872  .00316601  40522-4  88953-3 0  9992
2 46294  97.3072 301.1674 0005052 221.1994 138.8900 15.93528875274248
NAPA-1                  
1 46320U 20061BA  25220.85641706  .00010737  00000+0  25175-3 0  9992
2 46320  97.2966 286.0539 0002439  98.4774 261.6750 15.42247741273271
